SL-16 R/B               
1 22803U 93059B   26082.45198192  .00000077  00000+0  61950-4 0  9996
2 22803  70.9929 342.1067 0017714 196.6336 163.4209 14.17235215681483
ARIANE 40 R/B           
1 22830U 93061H   26082.45515356  .00000221  00000+0  96906-4 0  9994
2 22830  98.4891 151.0696 0009750 239.5955 120.4266 14.32867917696070
COSMOS 2278             
1 23087U 94023A   26082.45953362 -.00000238  00000+0 -99456-4 0  9994
2 23087  71.0534 146.2917 0008936 350.5898   9.5056 14.14377428646750
SL-16 R/B               
1 23088U 94023B   26082.28776122  .00000221  00000+0  13886-3 0  9995
2 23088  71.0002  42.3275 0005473 272.5635  87.4861 14.15011461648012
SL-16 R/B               
1 23343U 94074B   26082.11648778  .00000515  00000+0  75612-4 0  9994
2 23343  97.7091 112.3896 0006856 165.2976 249.7752 14.79422951689239
SL-16 R/B               
1 23405U 94077B   26082.40539854  .00000187  00000+0  12010-3 0  9999
2 23405  70.9844 323.6357 0002289 198.8104 161.2935 14.15568152618177
ARIANE 40+ R/B          
1 23561U 95021B   26082.42814434  .00000313  00000+0  11376-3 0  9999
2 23561  98.4474 153.7231 0007977 100.9127 269.6472 14.39781999621226
SL-16 R/B               
1 23705U 95058B   26082.48370904 -.00000125  00000+0 -39526-4 0  9995
2 23705  71.0217 151.2972 0010152 100.2633 259.9636 14.15500701569800
SL-16 R/B               
1 24298U 96051B   26082.40955293  .00000095  00000+0  78046-4 0  9993
2 24298  70.7594 146.2011 0013932 126.2895 233.9513 14.12419412523583
ORBVIEW 2 (SEASTAR)     
1 24883U 97037A   26082.35825347  .00000287  00000+0  11602-3 0  9995
2 24883  98.8591 247.0339 0002654  43.0722 317.0669 14.35504192510439
SL-16 R/B               
1 25400U 98043G   26082.34326885  .00000076  00000+0  50751-4 0  9996
2 25400  98.8278  35.8053 0009494 341.1087  18.9739 14.26052794440936
SL-16 R/B               
1 25407U 98045B   26082.48786299 -.00000119  00000+0 -36133-4 0  9997
2 25407  71.0116 152.5592 0007696 346.1827  13.9085 14.16195451429057
ISS (ZARYA)             
1 25544U 98067A   26082.45371250  .00014788  00000+0  28089-3 0  9992
2 25544  51.6345   4.3184 0006177 224.0290 136.0206 15.48489537558466
CZ-4B R/B               
1 25732U 99025C   26082.41242153  .00000030  00000+0  35439-4 0  9994
2 25732  98.6599 126.3672 0036145 306.4165  63.9384 14.18267909390112
OKEAN-O                 
1 25860U 99039A   26082.44092022  .00000716  00000+0  10073-3 0  9999
2 25860  97.9413 142.1907 0000933  82.1282 278.0035 14.80356699436423
SL-16 R/B               
1 25861U 99039B   26081.86762376  .00000587  00000+0  81211-4 0  9990
2 25861  97.9938 140.9429 0014101 210.0978 149.9426 14.81748750438816
DELTA 2 R/B             
1 25876U 99041E   26082.45849230  .00000519  00000+0  12314-3 0  9992
2 25876  51.7602 246.2785 0502614  29.0450 333.7478 14.11869206364975
