[{"OBJECT_NAME":"SL-16 R/B","OBJECT_ID":"1993-059B","EPOCH":"2026-03-23T10:50:51.237888","MEAN_MOTION":14.17235215,"ECCENTRICITY":0.0017714,"INCLINATION":70.9929,"RA_OF_ASC_NODE":342.1067,"ARG_OF_PERICENTER":196.6336,"MEAN_ANOMALY":163.4209,"EPHEMERIS_TYPE":0,"CLASSIFICATION_TYPE":"U","NORAD_CAT_ID":22803,"ELEMENT_SET_NO":999,"REV_AT_EPOCH":68148,"BSTAR":6.195e-5,"MEAN_MOTION_DOT":7.7e-7,"MEAN_MOTION_DDOT":0},{"OBJECT_NAME":"ARIANE 40 R/B","OBJECT_ID":"1993-061H","EPOCH":"2026-03-23T10:55:25.267584","MEAN_MOTION":14.32867917,"ECCENTRICITY":0.000975,"INCLINATION":98.4891,"RA_OF_ASC_NODE":151.0696,"ARG_OF_PERICENTER":239.5955,"MEAN_ANOMALY":120.4266,"EPHEMERIS_TYPE":0,"CLASSIFICATION_TYPE":"U","NORAD_CAT_ID":22830,"ELEMENT_SET_NO":999,"REV_AT_EPOCH":69607,"BSTAR":9.6906e-5,"MEAN_MOTION_DOT":2.21e-6,"MEAN_MOTION_DDOT":0},{"OBJECT_NAME":"COSMOS 2278","OBJECT_ID":"1994-023A","EPOCH":"2026-03-23T11:01:43.704768","MEAN_MOTION":14.14377428,"ECCENTRICITY":0.0008936,"INCLINATION":71.0534,"RA_OF_ASC_NODE":146.2917,"ARG_OF_PERICENTER":350.5898,"MEAN_ANOMALY":9.5056,"EPHEMERIS_TYPE":0,"CLASSIFICATION_TYPE":"U","NORAD_CAT_ID":23087,"ELEMENT_SET_NO":999,"REV_AT_EPOCH":64675,"BSTAR":-9.9456e-5,"MEAN_MOTION_DOT":-2.38e-6,"MEAN_MOTION_DDOT":0},{"OBJECT_NAME":"SL-16 R/B","OBJECT_ID":"1994-023B","EPOCH":"2026-03-23T06:54:22.569408","MEAN_MOTION":14.15011461,"ECCENTRICITY":0.0005473,"INCLINATION":71.0002,"RA_OF_ASC_NODE":42.3275,"ARG_OF_PERICENTER":272.5635,"MEAN_ANOMALY":87.4861,"EPHEMERIS_TYPE":0,"CLASSIFICATION_TYPE":"U","NORAD_CAT_ID":23088,"ELEMENT_SET_NO":999,"REV_AT_EPOCH":64801,"BSTAR":0.00013886,"MEAN_MOTION_DOT":2.21e-6,"MEAN_MOTION_DDOT":0},{"OBJECT_NAME":"SL-16 R/B","OBJECT_ID":"1994-074B","EPOCH":"2026-03-23T02:47:44.544192","MEAN_MOTION":14.79422951,"ECCENTRICITY":0.00068564,"INCLINATION":97.7091,"RA_OF_ASC_NODE":112.3896,"ARG_OF_PERICENTER":165.2976,"MEAN_ANOMALY":249.7752,"EPHEMERIS_TYPE":0,"CLASSIFICATION_TYPE":"U","NORAD_CAT_ID":23343,"ELEMENT_SET_NO":999,"REV_AT_EPOCH":68923,"BSTAR":7.5612241e-5,"MEAN_MOTION_DOT":5.15e-6,"MEAN_MOTION_DDOT":0},{"OBJECT_NAME":"SL-16 R/B","OBJECT_ID":"1994-077B","EPOCH":"2026-03-23T09:43:46.433856","MEAN_MOTION":14.15568152,"ECCENTRICITY":0.0002289,"INCLINATION":70.9844,"RA_OF_ASC_NODE":323.6357,"ARG_OF_PERICENTER":198.8104,"MEAN_ANOMALY":161.2935,"EPHEMERIS_TYPE":0,"CLASSIFICATION_TYPE":"U","NORAD_CAT_ID":23405,"ELEMENT_SET_NO":999,"REV_AT_EPOCH":61817,"BSTAR":0.0001201,"MEAN_MOTION_DOT":1.87e-6,"MEAN_MOTION_DDOT":0},{"OBJECT_NAME":"ARIANE 40+ R/B","OBJECT_ID":"1995-021B","EPOCH":"2026-03-23T10:16:31.670976","MEAN_MOTION":14.39781999,"ECCENTRICITY":0.0007977,"INCLINATION":98.4474,"RA_OF_ASC_NODE":153.7231,"ARG_OF_PERICENTER":100.9127,"MEAN_ANOMALY":269.6472,"EPHEMERIS_TYPE":0,"CLASSIFICATION_TYPE":"U","NORAD_CAT_ID":23561,"ELEMENT_SET_NO":999,"REV_AT_EPOCH":62122,"BSTAR":0.00011376,"MEAN_MOTION_DOT":3.13e-6,"MEAN_MOTION_DDOT":0},{"OBJECT_NAME":"SL-16 R/B","OBJECT_ID":"1995-058B","EPOCH":"2026-03-23T11:36:32.461056","MEAN_MOTION":14.15500701,"ECCENTRICITY":0.0010152,"INCLINATION":71.0217,"RA_OF_ASC_NODE":151.2972,"ARG_OF_PERICENTER":100.2633,"MEAN_ANOMALY":259.9636,"EPHEMERIS_TYPE":0,"CLASSIFICATION_TYPE":"U","NORAD_CAT_ID":23705,"ELEMENT_SET_NO":999,"REV_AT_EPOCH":56980,"BSTAR":-3.9526e-5,"MEAN_MOTION_DOT":-1.25e-6,"MEAN_MOTION_DDOT":0},{"OBJECT_NAME":"SL-16 R/B","OBJECT_ID":"1996-051B","EPOCH":"2026-03-23T09:49:45.373152","MEAN_MOTION":14.12419412,"ECCENTRICITY":0.0013932,"INCLINATION":70.7594,"RA_OF_ASC_NODE":146.2011,"ARG_OF_PERICENTER":126.2895,"MEAN_ANOMALY":233.9513,"EPHEMERIS_TYPE":0,"CLASSIFICATION_TYPE":"U","NORAD_CAT_ID":24298,"ELEMENT_SET_NO":999,"REV_AT_EPOCH":52358,"BSTAR":7.8046e-5,"MEAN_MOTION_DOT":9.5e-7,"MEAN_MOTION_DDOT":0},{"OBJECT_NAME":"ORBVIEW 2 (SEASTAR)","OBJECT_ID":"1997-037A","EPOCH":"2026-03-23T08:35:53.099808","MEAN_MOTION":14.35504192,"ECCENTRICITY":0.0002654,"INCLINATION":98.8591,"RA_OF_ASC_NODE":247.0339,"ARG_OF_PERICENTER":43.0722,"MEAN_ANOMALY":317.0669,"EPHEMERIS_TYPE":0,"CLASSIFICATION_TYPE":"U","NORAD_CAT_ID":24883,"ELEMENT_SET_NO":999,"REV_AT_EPOCH":51043,"BSTAR":0.00011602,"MEAN_MOTION_DOT":2.87e-6,"MEAN_MOTION_DDOT":0},{"OBJECT_NAME":"SL-16 R/B","OBJECT_ID":"1998-043G","EPOCH":"2026-03-23T08:14:18.428640","MEAN_MOTION":14.26052794,"ECCENTRICITY":0.0009494,"INCLINATION":98.8278,"RA_OF_ASC_NODE":35.8053,"ARG_OF_PERICENTER":341.1087,"MEAN_ANOMALY":18.9739,"EPHEMERIS_TYPE":0,"CLASSIFICATION_TYPE":"U","NORAD_CAT_ID":25400,"ELEMENT_SET_NO":999,"REV_AT_EPOCH":44093,"BSTAR":5.0751e-5,"MEAN_MOTION_DOT":7.6e-7,"MEAN_MOTION_DDOT":0},{"OBJECT_NAME":"SL-16 R/B","OBJECT_ID":"1998-045B","EPOCH":"2026-03-23T11:42:31.362336","MEAN_MOTION":14.16195451,"ECCENTRICITY":0.0007696,"INCLINATION":71.0116,"RA_OF_ASC_NODE":152.5592,"ARG_OF_PERICENTER":346.1827,"MEAN_ANOMALY":13.9085,"EPHEMERIS_TYPE":0,"CLASSIFICATION_TYPE":"U","NORAD_CAT_ID":25407,"ELEMENT_SET_NO":999,"REV_AT_EPOCH":42905,"BSTAR":-3.6133e-5,"MEAN_MOTION_DOT":-1.19e-6,"MEAN_MOTION_DDOT":0},{"OBJECT_NAME":"ISS (ZARYA)","OBJECT_ID":"1998-067A","EPOCH":"2026-03-23T10:53:20.760000","MEAN_MOTION":15.48489537,"ECCENTRICITY":0.0006177,"INCLINATION":51.6345,"RA_OF_ASC_NODE":4.3184,"ARG_OF_PERICENTER":224.029,"MEAN_ANOMALY":136.0206,"EPHEMERIS_TYPE":0,"CLASSIFICATION_TYPE":"U","NORAD_CAT_ID":25544,"ELEMENT_SET_NO":999,"REV_AT_EPOCH":55846,"BSTAR":0.00028089,"MEAN_MOTION_DOT":0.00014788,"MEAN_MOTION_DDOT":0},{"OBJECT_NAME":"CZ-4B R/B","OBJECT_ID":"1999-025C","EPOCH":"2026-03-23T09:53:53.220192","MEAN_MOTION":14.18267909,"ECCENTRICITY":0.0036145,"INCLINATION":98.6599,"RA_OF_ASC_NODE":126.3672,"ARG_OF_PERICENTER":306.4165,"MEAN_ANOMALY":63.9384,"EPHEMERIS_TYPE":0,"CLASSIFICATION_TYPE":"U","NORAD_CAT_ID":25732,"ELEMENT_SET_NO":999,"REV_AT_EPOCH":39011,"BSTAR":3.5439e-5,"MEAN_MOTION_DOT":3.0e-7,"MEAN_MOTION_DDOT":0},{"OBJECT_NAME":"OKEAN-O","OBJECT_ID":"1999-039A","EPOCH":"2026-03-23T10:34:55.507008","MEAN_MOTION":14.80356699,"ECCENTRICITY":9.33e-5,"INCLINATION":97.9413,"RA_OF_ASC_NODE":142.1907,"ARG_OF_PERICENTER":82.1282,"MEAN_ANOMALY":278.0035,"EPHEMERIS_TYPE":0,"CLASSIFICATION_TYPE":"U","NORAD_CAT_ID":25860,"ELEMENT_SET_NO":999,"REV_AT_EPOCH":43642,"BSTAR":0.00010073,"MEAN_MOTION_DOT":7.16e-6,"MEAN_MOTION_DDOT":0},{"OBJECT_NAME":"SL-16 R/B","OBJECT_ID":"1999-039B","EPOCH":"2026-03-22T20:49:22.692864","MEAN_MOTION":14.8174875,"ECCENTRICITY":0.0014101,"INCLINATION":97.9938,"RA_OF_ASC_NODE":140.9429,"ARG_OF_PERICENTER":210.0978,"MEAN_ANOMALY":149.9426,"EPHEMERIS_TYPE":0,"CLASSIFICATION_TYPE":"U","NORAD_CAT_ID":25861,"ELEMENT_SET_NO":999,"REV_AT_EPOCH":43881,"BSTAR":8.1211425e-5,"MEAN_MOTION_DOT":5.87e-6,"MEAN_MOTION_DDOT":0},{"OBJECT_NAME":"DELTA 2 R/B","OBJECT_ID":"1999-041E","EPOCH":"2026-03-23T11:00:13.734720","MEAN_MOTION":14.11869206,"ECCENTRICITY":0.0502614,"INCLINATION":51.7602,"RA_OF_ASC_NODE":246.2785,"ARG_OF_PERICENTER":29.045,"MEAN_ANOMALY":333.7478,"EPHEMERIS_TYPE":0,"CLASSIFICATION_TYPE":"U","NORAD_CAT_ID":25876,"ELEMENT_SET_NO":999,"REV_AT_EPOCH":36497,"BSTAR":0.00012314,"MEAN_MOTION_DOT":5.19e-6,"MEAN_MOTION_DDOT":0}]
